,Unnamed: 0,address,location,AWB,names,product_id,lat,lng
0,0,"6, Shakambari Nagar, 1st stage, JP Nagar, Bangalore, JP Nagar",JP Nagar,62201852038,Vickie Ramos,SKU_144,12.9120799,77.5745235
1,1,"1, 24th Main Rd, 1st Phase, Girinagar, KR Layout, Muneshwara T-Block, JP Nagar, Bangalore, JP Nagar",JP Nagar,73350066683,Jon Hall,SKU_31,12.9386287,77.5440288
2,2,"954, 2nd Floor, 24th Main, 2nd Phase, Opposite LIC Building, JP Nagar, Bangalore, JP Nagar",JP Nagar,60104333056,Linda Kurland,SKU_113,12.9115788,77.5857133
3,3,"1, 24th Main Rd, 1st Phase, Girinagar, KR Layout, Muneshwara T-Block, JP Nagar, Bangalore, JP Nagar",JP Nagar,49726345575,Cora Massart,SKU_23,12.9386287,77.5440288
4,4,"67, 15th Cross, 6th B Main, JP Nagar, Bangalore, JP Nagar",JP Nagar,33178947349,George Rivas,SKU_144,12.906383,77.596713
5,5,"281, 2nd Floor, 15th Cross, 5th Phase, JP Nagar, Bangalore, JP Nagar",JP Nagar,76031744666,Anna Kelly,SKU_38,12.9063958,77.5886106
6,6,"Cross Roads Inn, 827, Near RV Dental College Compound, 24th Main, 12th Cross, JP Nagar, Bangalore, JP Nagar",JP Nagar,81926175607,Virginia Sauer,SKU_109,12.9715987,77.5945627
7,7,"21, 24th Main Road, 6th Phase, JP Nagar, Bangalore, JP Nagar",JP Nagar,27632908686,Jesse Chan,SKU_141,12.9029512,77.5856205
8,8,"99/4, Nataraja Layout, 7th Phase, JP Nagar, Bangalore, JP Nagar",JP Nagar,66314622688,Johnny Runyan,SKU_134,12.8978624,77.5845084
9,9,"72, 2nd Floor, Next to Max & Crossword, 3rd Phase, Inner Ring Road, JP Nagar, Bangalore, JP Nagar",JP Nagar,83288941747,Yvonne Haddad,SKU_58,12.9506526,77.6392151
10,10,"Eden Park7, 8 Doresani Palya, Near Kalyani Magnum, Opposite Oracle, 5th Phase, JP Nagar, Bangalore, JP Nagar",JP Nagar,36774055970,Frank Garcia,SKU_16,12.901773,77.594978
11,11,"Amoolya, 1st Floor, 24th Main, 6th Phase, JP Nagar, Bangalore, JP Nagar",JP Nagar,49180403091,Ronnie Cameron,SKU_9,12.9088826,77.5857567
12,12,"47/1, 9th Main,1st Cross, Miniforest, Phase 3, JP Nagar, Bangalore, JP Nagar",JP Nagar,65307617155,Teresa Ford,SKU_59,12.916563,77.583568
13,13,"The HHI Select Bengaluru Hotel, 686, 15th Cross, Ring Road, 2nd Phase, JP Nagar, Bangalore, JP Nagar",JP Nagar,32162999926,Miguel Evanoff,SKU_44,12.9065794,77.5929269
14,14,"Quality Inn - Shravanthi, 60, 13th Cross, 2nd Main, 3rd Phase, JP Nagar, Bangalore, JP Nagar",JP Nagar,67841310375,Brenda Berry,SKU_103,12.907355,77.5985151
15,15,"5th Cross Road, Dollar Layout, 3rd Phase, JP Nagar, Bangalore, JP Nagar",JP Nagar,98072567575,Brian Glass,SKU_45,12.9066907,77.602318
16,16,"57, 15th Cross Road, Outer Ring Road, Phase 6, JP Nagar, Bangalore, JP Nagar",JP Nagar,81028594970,Daniel Moore,SKU_92,12.9070991,77.5996462
17,17,"97, Wilson Garden Housing Society, 7th Phase, JP Nagar, Bangalore, JP Nagar",JP Nagar,72346908029,James Rego,SKU_13,12.8978624,77.5845084
18,18,"44-45, Terrace Floor, 24th Main Road, 7th phase, JP Nagar, Bangalore, JP Nagar",JP Nagar,73908465584,Mildred Richards,SKU_98,12.8982804,77.5858544
19,19,"Amoolya, 1st Floor, 24th Main, 6th Phase, JP Nagar, Bangalore, JP Nagar",JP Nagar,82980897770,Daren Devit,SKU_74,12.9088826,77.5857567
20,20,"8, 15th Main, 5th Phase, JP Nagar, Bangalore, JP Nagar",JP Nagar,72031214940,Sarah Kardashian,SKU_138,12.9033045,77.5917385
21,21,"114, Kothanur Main Road, Santrupthi Nagar, 7th Phase, JP Nagar, Bangalore, JP Nagar",JP Nagar,13346207178,Ryan Orlando,SKU_29,12.8919779,77.5817794
22,22,"Site 15, 15th Cross, 100 Feet Road, 4th Phase, JP Nagar, Bangalore, JP Nagar",JP Nagar,66193906105,Gerard Cardin,SKU_96,12.9061345,77.5968288
23,23,"204, 4th Cross, KSRTC Layout, 2nd Phase, JP Nagar, Bangalore, JP Nagar",JP Nagar,18834198685,Rebecca Vanos,SKU_56,12.9127245,77.5958453
24,24,"18, K.R Layout, Dollar Colony, 4th Phase, JP Nagar, JP Nagar",JP Nagar,77357637627,Willie Matson,SKU_100,12.9043079,77.5984654
25,25,"Someshwara Bhavan, RBI Layout, 7th Phase, Kothnur Main Road, JP Nagar, Bangalore, JP Nagar",JP Nagar,50570222462,Jason Taylor,SKU_95,12.8838109,77.5829501
26,26,"10/3, Shamanna Garden, 22nd Main Rd, Phase 5, JP Nagar, Bangalore, JP Nagar",JP Nagar,86868052143,Mabel Covell,SKU_29,12.9037401,77.5870418
27,27,"296, Ground Floor, 5th Phase, 100 ft Outer Ring Road, JP Nagar, Bangalore, JP Nagar",JP Nagar,60270106051,Martha Braun,SKU_103,12.9715987,77.5945627
28,28,"46/A, 1st Main, 3rd Phase, JP Nagar, Bangalore, JP Nagar",JP Nagar,61686659900,James Riley,SKU_22,12.9112119,77.599166
29,29,"Brigade Millenium Inside Indian Music Experience Museum, JP Nagar, Bangalore, Bengaluru, JP Nagar",JP Nagar,69289578038,Elijah Reno,SKU_51,12.9715987,77.5945627
30,30,"81, 7th Main, 5th Cross, Bank of Baroda Colony, 7th Phase, JP Nagar, Bangalore, JP Nagar",JP Nagar,71217404672,Lidia Wickham,SKU_58,12.9059478,77.6058923
31,31,"JP Nagar, Phase 7, Bangalore, JP Nagar",JP Nagar,24549099395,Freda Beauchamp,SKU_40,12.8890015,77.573385
32,32,"724, 3rd Floor, RBI Layout, Rini Pearl, Opposite E.K. Retail, 7th Phase, JP Nagar, Bangalore, JP Nagar",JP Nagar,50581824353,Tim Sokol,SKU_125,12.8917914,77.577754
33,33,"305, Anand NR Onyx, 15th Cross, 100 Feet Ring Road, 5th Phase Extension, JP Nagar, Bangalore, JP Nagar",JP Nagar,52273090335,Antonio Oliver,SKU_7,12.9715987,77.5945627
34,34,"104/1, 21st Main Road, 6th Cross Road, R K Colony, JP Nagar 2nd Phase, Bangalore, JP Nagar",JP Nagar,60730226124,Richard Book,SKU_147,12.9147764,77.5882591
35,35,"1260 SY 35/4 SJR Tower's, 24th Main Puttanhalli, 7th Phase, JP Nagar Bangalore, JP Nagar",JP Nagar,38777880457,Karen Yuen,SKU_137,12.898047,77.582824
36,36,"1260 SY 35/4 SJR Tower's, 24th Main Puttanhalli, JP Nagar 7th Phase, Bangalore, JP Nagar",JP Nagar,14876577908,John Fridley,SKU_21,12.898047,77.582824
37,37,"1260, SY 35/4, SJR Towers, 24th Main Puttanhalli, 7th Phase, JP Nagar, Bangalore, JP Nagar",JP Nagar,15743308603,Louise Lynch,SKU_15,12.898047,77.582824
38,38,"1260 SY 35/4 SJR Tower's, JP Nagar 7th Phase, 24th Main Puttanhalli, JP Nagar, Bangalore, JP Nagar",JP Nagar,96594637899,Sam Vest,SKU_83,12.898047,77.582824
39,39,"1260, SY 35/4, SJR Towers, 24th Main Puttanhalli, 7th Phase, JP Nagar, Bangalore, JP Nagar",JP Nagar,75423501902,Doris Floyd,SKU_143,12.898047,77.582824
40,40,"5th A Cross, Lakshmi Complex, Manjunatha Colony, Near RV Dental College, 2nd phase, JP Nagar, Bangalore, JP Nagar",JP Nagar,13385067871,Leticia Coleman,SKU_28,12.9127901,77.5866573
41,41,"#35/4, 24th main JP Nagar 7th phase, Puttenahalli, JP Nagar, Bangalore, JP Nagar",JP Nagar,25281194232,Christine Pfeiff,SKU_117,12.901013,77.586034
42,42,"99/2A, Kothnoor Main Road, Opposite RBI Layout Bus Stop, 7th Phase, JP Nagar, Bangalore, JP Nagar",JP Nagar,60615787248,William Rivera,SKU_77,12.8824691,77.5832616
43,43,"77/1, 24th Main, 2nd Phase, JP Nagar, Bangalore, JP Nagar",JP Nagar,85830764356,John Dutton,SKU_144,12.9158698,77.5860082
44,44,"18th Cross road, 5th Phase, JP Nagar, Bangalore, JP Nagar",JP Nagar,87207515803,Angela Cowman,SKU_59,12.9032116,77.5877971
45,45,"1260, SY 35/4, SJR Tower's, 7th Phase, 24th Main Puttanhalli, JP Nagar, Bangalore, JP Nagar",JP Nagar,62376246282,Edward Leon,SKU_123,12.9070091,77.585678
46,46,"1260 SY 35/4 SJR Tower's, JP Nagar 7th Phase, 24th Main Puttanhalli, JP Nagar, Bangalore, JP Nagar",JP Nagar,34763837898,Michael Parenteau,SKU_141,12.898047,77.582824
47,47,"Shop 1, 129, 24th Main, 5th Phase, JP Nagar, Bangalore, JP Nagar",JP Nagar,95782788535,Daniel Tremper,SKU_91,12.9038753,77.5859068
48,48,"311, 15th Cross, 5th Phase, JP Nagar, Bangalore, JP Nagar",JP Nagar,92874070081,Thomas Lyons,SKU_18,12.9061386,77.5929986
49,49,"Big Bazzar Building, JP Nagar, Bangalore, JP Nagar",JP Nagar,28090773455,Antoine Robertson,SKU_130,12.9063433,77.5856825
50,50,"15, 7th Cross, Near Mother Teresa School, ITI Layout, Hosapalya Main Road, HSR, Bangalore, HSR",HSR,65216540873,Nathan Merkel,SKU_65,12.8921504,77.6282442
51,51,"119/19, Ground Floor, 10th Cross, Venkateshwara Layout, SG Palya, HSR, Bangalore, HSR",HSR,30262250302,Jenna Reed,SKU_136,12.9481544,77.5971734
52,52,"1554, Ground Floor, 19th Main, Sector 1, HSR, Bangalore, HSR",HSR,95752660397,William Wilson,SKU_9,12.9136257,77.6446549
53,53,"7th Cross, Sector 1, HSR, Bangalore, HSR",HSR,30449400919,Bonnie Heath,SKU_91,12.9194511,77.6487443
54,54,"27th Main road, Sriven Teesta, Near Raymond?s Showroom HSR, Bangalore, HSR",HSR,52917061849,Katrina Hilderbrandt,SKU_8,12.910037,77.6516807
55,55,"2331, 17th Cross, 24th Main, HSR, Bangalore, HSR",HSR,41474085570,Terresa Breau,SKU_70,12.9120766,77.6494981
56,56,"Shop 5, LNR Building, Harlur Road, HSR, Bangalore, HSR",HSR,74962568491,Carol Pettway,SKU_93,12.9121181,77.6445548
57,57,"64&65, 27th Main Road, Sector 1, HSR Layout, HSR",HSR,33783112676,Glennie Delacruz,SKU_106,12.9175337,77.6504572
58,58,"27th Main, Near NIFT, Sector-1, HSR, Bangalore, HSR",HSR,40837739535,Margie Galvan,SKU_76,12.9119545,77.6526297
59,59,"2318, 27th Main Road, 1st Sector, HSR, Bangalore, HSR",HSR,42498449819,Kenneth Baker,SKU_82,12.9175337,77.6504572
60,60,"569/4, Sector 1, HSR, Bangalore, HSR",HSR,14699928469,Lucille Keirstead,SKU_123,12.9257303,77.6651649
61,61,"1554, Ground Floor, 19th Main, Sector - 1, HSR, Bangalore, HSR",HSR,54163870135,Tara Allen,SKU_47,12.961331,77.570074
62,62,"2733, 16th Cross, 27th Main, Opposite NIFT, Sector 1, HSR Layout, Bangalore, HSR, Bangalore, HSR",HSR,98967476662,Marshall Quinton,SKU_142,12.912702,77.652479
63,63,"543, 7th Cross, 24th Main, Opposite Nous Info Systems, Sector 1, HSR, Bangalore, HSR",HSR,94332983235,Gustavo Bailey,SKU_117,12.9196367,77.6494753
64,64,"13th Cross, 24th Main, Opposite Assetz Apartment, 1st Sector, HSR, Bangalore, HSR",HSR,21104565365,Kathleen Cantrell,SKU_76,12.91615,77.6488823
65,65,"7th Cross Road, Agara Village, 1st Sector, HSR, Bangalore, HSR",HSR,78472305957,Donald Allen,SKU_139,12.9194418,77.647291
66,66,"680-669, 13th Cross Rd, 1st Sector, HSR Layout, Bengaluru, Karnataka, HSR",HSR,11910424508,Nanette Mcbride,SKU_89,12.9159261,77.6497332
67,67,"2724, 31st Main, 17th Cross, HSR, Bangalore, HSR",HSR,89394948450,David Webber,SKU_42,12.9126877,77.6532769
68,68,"1543, 7th Cross, 19th Main, 1st Sector, HSR, Bangalore, HSR",HSR,87898682349,Brian Isom,SKU_81,12.9196402,77.6444792
69,69,"1214, 17th Cross Road, Parangi Palaya, Sector 2, HSR Layout, Bangalore, HSR",HSR,71466613736,Ralph Martin,SKU_59,12.9121301,77.650205
70,70,"Basement 2064, Siri Iris Building, 24th Main, N.R.T.A Enclave, HSR, Bangalore, HSR",HSR,58089927559,Dana Farley,SKU_89,12.9119138,77.6490398
71,71,"809/A, 27th Main, 100 Feet Road, 1st Sector, HSR, Bangalore, HSR",HSR,85539430303,Sherry Ludlam,SKU_50,12.9243234,77.6480349
72,72,"Building 2686, 31 Main, 13 Cross, Sector 1, Behind CPWD Quarters, HSR Layout, HSR, Bangalore, HSR",HSR,85984892588,Amber Smith,SKU_147,12.9146888,77.6539896
73,73,"191, Ground Floor, 27th Main Road, Near CPWD Quarters, Beside Lawrance & Mayo, Sector 2, HSR, Bangalore, HSR",HSR,53402748741,Juanita Pahulu,SKU_53,12.914122,77.651739
74,74,"2633, 27th Main, 13th Cross, 1st Sector, Liss Arcade, HSR, Bangalore, HSR",HSR,49002247401,Mary Davis,SKU_13,12.9154055,77.6321455
75,75,"1548, 19th Main, Outer Ring Road, Opposite BMTC Bus Depot, HSR, Bangalore, HSR",HSR,29805721561,Carma Haynie,SKU_41,12.9202927,77.6451278
76,76,"2733, 16th Cross, 27th Main Road, Oppsite, NIFT College, 1st Sector, HSR Layout, Bangalore, HSR",HSR,84618864102,Daniel Miller,SKU_119,12.9175337,77.6504572
77,77,"2610, 27th Main, Near NIFT, HSR Layout, HSR, Bangalore, HSR",HSR,50745703670,Christopher Porter,SKU_106,12.9119545,77.6526297
78,78,"1, 328, 27th Main, 21st Cross, Sector 2, HSR, Bangalore, HSR",HSR,89111417547,Larry Herndon,SKU_48,12.9092159,77.6487655
79,79,"49, Agara Circle, Near Hanuman Statue, HSR Layout, HSR, Bangalore, HSR",HSR,56766768595,Elaine Watson,SKU_19,12.9121181,77.6445548
80,80,"Opposite NIFT College, 2733, 16th Cross, 27th Main Road, PWD Quarters, 1st Sector, HSR Layout, HSR, Bangalore, HSR",HSR,85469796479,Theodore Bunch,SKU_38,12.912702,77.652479
81,81,"#2733, 16th Cross, 27th Main, Opppsite NIFT College, Sector 1, HSR, Bangalore, HSR",HSR,31316164825,Joe Worley,SKU_110,12.912702,77.652479
82,82,"Next to Grigliato, Sector 1 , HSR Layout, HSR, Bangalore, HSR",HSR,18227945733,Amber Johnson,SKU_55,12.9221548,77.6453711
83,83,"2606, Ground Floor, The Ambience Building, 16th Cross, 27th Main, Sector 1, HSR, Bangalore, HSR",HSR,94402524628,Howard Roman,SKU_85,12.9125828,77.6510904
84,84,"2802, 27th Main Road, Sector 1, HSR, Bangalore, HSR",HSR,46205581478,Benjamin Smith,SKU_103,12.9175337,77.6504572
85,85,"1562, Sector 1, HSR, Bangalore, HSR",HSR,22921695090,Charles Trembley,SKU_2,12.9175337,77.6504572
86,86,"2738, 27th Main, Sector 1, HSR, Bangalore, HSR",HSR,91311238475,Marissa Coram,SKU_28,12.9175337,77.6504572
87,87,"646, 12th Cross, 27th Main, Sector 1, HSR, Bangalore, HSR",HSR,89040589151,Iva Bell,SKU_20,12.9163356,77.6521815
88,88,"647, Ground Floor, 27th Main Road, Sector 1, HSR, Bangalore, HSR",HSR,96874607527,Frances Chai,SKU_110,12.9175337,77.6504572
89,89,"191, First Floor, 27th Main, Sector 2, HSR, Bangalore, HSR",HSR,17354068059,Clarence Fuller,SKU_69,12.908942,77.6464534
90,90,"2317, 27th Main, Sector 1, Opposite NIFT College, HSR Layout, HSR, Bangalore, HSR",HSR,76687493477,Marvin Buck,SKU_73,12.912137,77.65196
91,91,"2628, 27th Main Road, 1st Sector, HSR Layout, Bangalore, HSR, Bangalore, HSR",HSR,50915970151,Milton Wilson,SKU_77,12.9175337,77.6504572
92,92,"1554, Ground Floor, 19th Main, Sector - 1, HSR, Bangalore, HSR",HSR,19365687734,Angela Hindman,SKU_34,12.961331,77.570074
93,93,"780, 12th Cross, 19th Main, HSR, Bangalore, HSR",HSR,20687322207,Carol Upchurch,SKU_10,12.9163752,77.6497418
94,94,"2606, The Ambience, 27th Main Road, 16th cross, HSR Layout, HSR",HSR,47082143365,Peggy Hwang,SKU_64,12.9125828,77.6510904
95,95,"331, Ground Floor, 27th Main, 2nd Stage, HSR, Bangalore, HSR",HSR,81727476606,William Sherman,SKU_146,12.9121181,77.6445548
96,96,"1548, 3rd Floor,19th Main Road, Sector 1, Agara Village, HSR, Bangalore, HSR",HSR,28764133976,Shana Davis,SKU_123,12.9189625,77.6449137
97,97,"Shop 339, 27th Main Road, HSR Layout Sector 2, Bangalore, HSR",HSR,66471762239,Jesus Rodriguez,SKU_106,12.908942,77.6464534
98,98,"2610, 27th Main, Near NIFT, HSR Layout, HSR, Bangalore, HSR",HSR,28074155949,Thelma Howells,SKU_83,12.9119545,77.6526297
99,99,"1558, 19th Main, Ring Road, Near Indian Oil Petrol Bunk, Sector 1, HSR, Bangalore, HSR",HSR,39213602287,Raymond Huffman,SKU_50,12.92178,77.6451944
100,100,"712, 6th Cross, 5th Main, Off 80 Feet Road, Indiranagar, Bangalore, Indiranagar",Indiranagar,21225161006,Joanna Evetts,SKU_9,12.9758079,77.6467327
101,101,"14, 2nd Floor, Church Street, Bangalore, Indiranagar",Indiranagar,15239382796,Virginia Cole,SKU_27,12.9783692,77.6408356
102,102,"First Floor, 14, Church Street, Bangalore, Indiranagar",Indiranagar,99015056791,Normand Ashford,SKU_113,12.9752302,77.6034622
103,103,"36, Off MG Road, Church Street, Bangalore, Indiranagar",Indiranagar,44759282449,Robert Olsen,SKU_83,12.9725296,77.6190202
104,104,"42, Church Street, Bangalore, Indiranagar",Indiranagar,52059909281,Joyce Brothers,SKU_107,12.9757954,77.6019081
105,105,"19, Church Street, Bangalore, Indiranagar",Indiranagar,73238382715,Raymond Hernandez,SKU_139,12.9743603,77.6050414
106,106,"33, High Gates Hotel, Church Street, Bangalore, Indiranagar",Indiranagar,76893410434,George Garrett,SKU_10,12.9783692,77.6408356
107,107,"2, Church Street, Bangalore, Indiranagar",Indiranagar,84366653069,Phyllis Ehlers,SKU_116,12.9746635,77.6076522
108,108,"46, Church Street, Bangalore, Indiranagar",Indiranagar,41965274833,Ralph Evans,SKU_88,12.9757082,77.6023934
109,109,"9/3, Prestige Pearl House, Museum Road, Church Street, Bangalore, Indiranagar",Indiranagar,40661403008,Shawn Reeves,SKU_23,12.9735121,77.603345
110,110,"1A, Church Street, Bangalore, Indiranagar",Indiranagar,59997033261,Lelia Wooten,SKU_114,12.9740428,77.6071375
111,111,"G-005, City Centre, 28/4, Church Street, Bangalore, Indiranagar",Indiranagar,83381832974,Christopher Watters,SKU_106,12.9756472,77.6022537
112,112,"22, Amoeba Complex, Church Street, Bangalore, Indiranagar",Indiranagar,98170732794,Twyla Nichols,SKU_1,12.9743127,77.6077163
113,113,"Church Street, Indiranagar",Indiranagar,69379883919,Joe Lawson,SKU_124,12.9783692,77.6408356
114,114,"24, Church Street, Bangalore, Indiranagar",Indiranagar,70918939146,Mary Reed,SKU_127,12.974685,77.605791
115,115,"765, 1st Floor, 1st Main, Domlur Layout, Domlur, Bangalore, Indiranagar",Indiranagar,81721151401,Scott Peabody,SKU_17,12.9609857,77.6387316
116,116,"8/ 9, 17th F Cross, 2nd Stage, Indiranagar, Bengaluru, Indiranagar",Indiranagar,29925333677,Terry Mitchell,SKU_81,12.9747583,77.637107
117,117,"Next to CMH Metro Station, CMH Road, Indiranagar, Bangalore, Indiranagar",Indiranagar,46767096463,Thomas Viviano,SKU_146,12.9778862,77.6461979
118,118,"Ground Floor, Sri Shiva Sai Complex, 13th Cross, 7th Main, 2nd Stage, HAL, Off Double Road, Indiranagar, Bangalore, Indiranagar",Indiranagar,92941598133,Joseph Boyd,SKU_129,12.9786738,77.6362003
119,119,"Domlur, Bangalore, Indiranagar",Indiranagar,86841663173,George Douglas,SKU_17,12.9609857,77.6387316
120,120,"46, Church Street, Bangalore, Indiranagar",Indiranagar,24472334890,Marjorie Williamson,SKU_91,12.9757082,77.6023934
121,121,"Shop 6, First Floor, Binnamangala First Stage, Indiranagar, Bangalore, Indiranagar",Indiranagar,26105795180,Roger Bouldin,SKU_18,12.9782591,77.6448425
122,122,"970, 12th Main, 5th Cross, Indiranagar, Bangalore, Indiranagar",Indiranagar,94667742985,Daniel Marrin,SKU_113,12.969924,77.6388704
123,123,"1088, 12th Main, HAL 2nd Stage, Off 100 Feet Road, Indiranagar, Bangalore, Indiranagar",Indiranagar,38434272738,Trudy Moore,SKU_123,12.9699142,77.6379417
124,124,"181, 3rd Floor, Amar Jyothi Layout, Inner Ring Road, Domlur, Bangalore, Indiranagar",Indiranagar,53198547414,Kathleen Thompson,SKU_110,12.9609857,77.6387316
125,125,"544, First Floor, Near Indiranagar Metro Station, CMH Road, Indiranagar, Bangalore, Indiranagar",Indiranagar,38200322788,Michael Frasier,SKU_45,12.9783143,77.637585
126,126,"212/A, 1st Main Road, Stage 2, Indiranagar, Bangalore, Indiranagar",Indiranagar,47003637195,Marshall Parham,SKU_131,12.9653791,77.638034
127,127,"598, 1st floor, 1st Cross, 1st A Main Road, Domlur Layout, Domlur, Bangalore, Indiranagar",Indiranagar,89741372672,Sandra Downes,SKU_118,12.973188,77.6323717
128,128,"598, 1st floor, 1st Cross, 1st A Main Road, Domlur Layout, 1st Stage, Domlur, Bangalore, Indiranagar",Indiranagar,85725180680,Stanley Davis,SKU_72,12.9589303,77.6406126
129,129,"197/A, Double Road, 2nd Stage, Opposite HDFC Bank, Indiranagar, Bangalore, Indiranagar",Indiranagar,70899793952,Gary Simmons,SKU_121,12.9613059,77.6366221
130,130,"G-005, City Centre, 28/4, Church Street, Bangalore, Indiranagar",Indiranagar,61422999142,Aldo Edsall,SKU_45,12.9756472,77.6022537
131,131,"4, 39/1, St Mary's Building, 2nd Stage, Indiranagar, Bangalore, Indiranagar",Indiranagar,55525210263,Mary Perez,SKU_55,12.9783692,77.6408356
132,132,"212/A, 1st Main Road, Stage 2, Indiranagar, Bangalore, Indiranagar",Indiranagar,13337031353,Lawerence Lindsay,SKU_75,12.9653791,77.638034
133,133,"48, Triumph Towers, Church Street, Bangalore, Indiranagar",Indiranagar,73796529420,Jesse Suarez,SKU_98,12.975507,77.603148
134,134,"Srinivasan Towers, ESI Hospital Road, Off Double Road, Indiranagar, Bangalore, Indiranagar",Indiranagar,55217454663,Joseph Jones,SKU_142,12.9783692,77.6408356
135,135,"Number 4 St Mary's Building, 39/1, 2nd Stage, Indiranagar, Bangalore, Indiranagar",Indiranagar,38653109135,Samuel Sampley,SKU_148,12.9061385,77.5580715
136,136,"949, Ground Floor, HAL 2nd Stage, 12th Main, 100 feet Road, Indiranagar, Bangalore, Indiranagar",Indiranagar,77604849495,Patricia Johnston,SKU_20,12.9702698,77.6412285
137,137,"50/1, Haridevpur, Shantala Nagar, Ashok Nagar, Church Street, Bangalore, Indiranagar",Indiranagar,75568022308,Pam Trela,SKU_90,12.9749903,77.6047836
138,138,"1324, Double Road, 2nd Stage, Opposite Cauvery School, Indiranagar, Bangalore, Indiranagar",Indiranagar,81655937477,Jose Williams,SKU_115,12.9747583,77.637107
139,139,"1083, 12th main, 5th Cross, Indiranagar, Bangalore, Indiranagar",Indiranagar,20550226542,Doria Ferguson,SKU_114,12.9699539,77.638717
140,140,"949, 12th Main, Ground Floor, Off 100 Feet Road, Indiranagar, Bangalore, Indiranagar",Indiranagar,62399381626,Harvey Tyner,SKU_91,12.9702835,77.6413405
141,141,"2nd Stage, Indiranagar, Bangalore, Indiranagar",Indiranagar,91477551055,Thomas Lindquist,SKU_52,12.9747583,77.637107
142,142,"3217, 13th Cross, Indiranagar, Bangalore, Indiranagar",Indiranagar,66146763539,Shirlee Tennant,SKU_10,12.9727187,77.6351405
143,143,"12th Main, HAL 2nd Stage, ESI To Domlur, Service Road, Indiranagar, Bangalore, Indiranagar",Indiranagar,84612864961,Shelia West,SKU_80,12.9614154,77.6349097
144,144,"12th Main Road Junction, Double Road, Indiranagar, Bangalore, Indiranagar",Indiranagar,75506986031,Anna Bundy,SKU_86,12.9698507,77.6359686
145,145,"4, St Mary's Building, 2nd Stage, Indiranagar, Bangalore, Indiranagar",Indiranagar,62280811516,Gertrude Frazier,SKU_70,12.9783692,77.6408356
146,146,"46/1, Cobalt Building, Church Street, Bangalore, Indiranagar",Indiranagar,81065467193,Jeffrey Mekee,SKU_69,12.9783692,77.6408356
147,147,"39/7, 5th Cross, 6th Main, Appareddy Palya, Indiranagar, Bangalore, Indiranagar",Indiranagar,79226518761,John Dennis,SKU_6,12.9783692,77.6408356
148,148,"949, 12th Main Rd, Appareddipalya, Indiranagar, Bengaluru, Karnataka, Indiranagar",Indiranagar,65665446450,Mary Walton,SKU_61,12.9701997,77.6391119
149,149,"598, 1st Floor, 1st Cross, 1st A Main Road, Domlur Layout, 1st Stage, Domlur, Bangalore, Indiranagar",Indiranagar,96249705883,Rosa Alvarez,SKU_18,12.9589303,77.6406126
150,150,"2/1 Unit 6, Hoodi Kodigehalli Road, Opposite Crystal Apartment, KR Puram, Bangalore, KR Puram",KR Puram,80856836359,Beverly Coleman,SKU_86,12.9715987,77.5945627
151,151,"39, Aiyaapanagar Main Road, Near Krishna Community Hall, KR Puram, Bangalore, KR Puram",KR Puram,63269771781,Deanna Castille,SKU_43,13.0020256,77.7123443
152,152,"92, Kodigehalli Main Road, Ayyappa Nagar, KR Puram, Bangalore, KR Puram",KR Puram,81129879069,Virginia Hernandez,SKU_104,13.004608,77.7140429
153,153,"Devasandra Main Road, Ayyappa Nagar, KR Puram, Bangalore, KR Puram",KR Puram,28529174781,Bryan Warthen,SKU_12,13.0043122,77.7103151
154,154,"92, Ground Floor, Muninanjappa Gardens, Kodigehalli Main Road, KR Puram, Bangalore, KR Puram",KR Puram,62724763094,Jacob Mccroy,SKU_67,13.003555,77.7245487
155,155,"Coconut Garden Layout, Kodigehalli Main Road, KR Puram, Bangalore, KR Puram",KR Puram,62644046092,Sherry Cole,SKU_69,13.0034826,77.7175524
156,156,"21/28, Radhakrishna Nilaya, Opp SEA Institutions, Ayappa Nagar, KR Puram, Bangalore, KR Puram",KR Puram,17432534499,Verna White,SKU_132,12.9998189,77.7151616
157,157,"2/1 Unit 6, Hoodi Kodigehalli Road, Opposite Crystal Apartment, KR Puram, Bangalore, KR Puram",KR Puram,84273793675,James Horne,SKU_150,12.9715987,77.5945627
158,158,"7, Anurhh Arcade, Hoodi Road, Kodigehalli Road, KR Puram, Bangalore, KR Puram",KR Puram,60381594139,Marlon Leonard,SKU_91,12.9715987,77.5945627
159,159,"76, Shruthi Layout, Basavanapura Main Road, KR Puram, Bangalore, KR Puram",KR Puram,61354798733,Matthew Bass,SKU_97,12.9715987,77.5945627
160,160,"7, Anurhh Arcade, Hoodi Road, Kodigehalli Road, KR Puram, Bangalore, KR Puram",KR Puram,60559333974,Romelia Phillips,SKU_12,12.9715987,77.5945627
161,161,"Shop 2, Kodigahalli Main Road, KR Puram, KR Puram",KR Puram,89948676925,James Carlen,SKU_73,13.0077274,77.7342053
162,162,"2/1 Unit 6, Hoodi Kodigehalli Road, Opposite Crystal Apartment, KR Puram, Bangalore, KR Puram",KR Puram,44140764186,Abraham Rehkop,SKU_142,12.9715987,77.5945627
163,163,"44, Kodigehalli to Hoodi Main Road, Mahadevapura Post, KR Puram, Bangalore, KR Puram",KR Puram,34795550625,Diana Gerry,SKU_136,12.9860236,77.7084196
164,164,"7, Anurhh Arcade, Hoodi Road, Kodigehalli Road, KR Puram, Bangalore, KR Puram",KR Puram,81037487822,Carl Luskey,SKU_143,12.9715987,77.5945627
165,165,"2/1 Unit 6, Hoodi Kodigehalli Road, Opposite Crystal Apartment, KR Puram, Bangalore, KR Puram",KR Puram,47626343441,Virginia Hartzler,SKU_36,12.9715987,77.5945627
166,166,"Shop 2, Kodigahalli Main Road, KR Puram, KR Puram",KR Puram,84014569034,Peggy Heisler,SKU_116,13.0077274,77.7342053
167,167,"7, Anurhh Arcade, Hoodi Road, Kodigehalli Road, KR Puram, Bangalore, KR Puram",KR Puram,15145909184,Tiffany Coker,SKU_70,12.9715987,77.5945627
168,168,"Near Bank Of India ATM, Ramka Colony, Bilekahalli, Marathahalli, Bangalore, MTH",MTH,35496906287,Jessica Blakely,SKU_41,12.8984604,77.6057848
169,169,"Near Bank Of India ATM, Ramka Colony, Bilekahalli, Marathahalli, Bangalore, MTH",MTH,47772983315,Larry Solomon,SKU_24,12.8984604,77.6057848
170,170,"595, Ground Floor, Kundalahalli, Varthur Hobli Mahadevpura, Marathahalli, Bangalore, MTH",MTH,25842170396,Jon Villanueva,SKU_79,12.9582443,77.7155847
171,171,"20/7, Swamy Legato, Outer Ring Road, Kadubeesanahalli, Marathahalli, Bangalore, MTH",MTH,60147650973,Richard Wheeless,SKU_68,12.9389269,77.6946805
172,172,"20\5, Panathur Junction, Outer Ring Road, Kadubeessanahalli, Marathahalli, Bangalore, MTH",MTH,84961010116,John Kessler,SKU_8,12.9399931,77.6962218
173,173,"20/5, 1st Floor, Panathur Junction, Outer Ring Road, Marathahalli, Bangalore, MTH",MTH,19783328541,Anthony Torres,SKU_67,12.9399931,77.6962218
174,174,"Ibis Bengaluru, Opposite RMZ Ecospace Business Park, Sarjapur Outer Ring Road, Marathahalli, Bangalore, MTH",MTH,22195593543,Robert Michaud,SKU_33,12.956924,77.701127
175,175,"10/3, Devarabeesanahali, Outer Ring Road, Opposite Embassy Tech Park, Marathahalli, Bangalore, MTH",MTH,86439214657,Lola Lomago,SKU_66,12.9267407,77.6895485
176,176,"Shop 37, 3rd Cross, Outer Ring Road, Kadubisnahalli, Marathahalli, Bangalore, MTH",MTH,48712626536,Gary Nelson,SKU_7,12.9389269,77.6946805
177,177,"2nd Floor, All Season Super Market Building, Panathur Road, Kadubeesanahalli, Panathur, Marathahalli, Bangalore, MTH",MTH,79263517463,Willie Kirkwood,SKU_127,12.9355432,77.7057337
178,178,Best Of Bengal,MTH,32519389307,Diane Jones,SKU_91,12.940234,77.6959631
179,179,"89/1, Tulasi Theater Road, Near SBR Palace, Marathahalli, Bangalore, MTH",MTH,98486281871,Terry Sanabria,SKU_150,12.9499232,77.6976686
180,180,"20/5, Narayanswamy Building, Kadubeesanahalli Bridge, Outer Ring Road, Kadubeesanahalli, Marathahalli, Bangalore, MTH",MTH,48552195740,Barbara Capehart,SKU_42,12.9394137,77.6952031
181,181,"90/4, Above Sony Centre, Opposite Park Plaza, Outer Ring Road, Marathahalli, Bangalore, MTH",MTH,51656603551,Patrick Gilliam,SKU_55,12.9502139,77.6989321
182,182,"Kadubeesanahalli, Near Aricent Technologies, Marathahalli, Bangalore, MTH",MTH,19455702296,John Granderson,SKU_140,12.9394137,77.6952031
183,183,"94/2, Panathur Railway Station Road, Opp to JP Morgan (Outer Ring Road), Munnireddy Layout, Panathur, Bangalore, MTH",MTH,98312518779,Patricia Haislip,SKU_120,12.9413202,77.70326
184,184,"89/1, Service Road, Marathahalli, Bangalore, MTH",MTH,55026656606,Carolyn Buchan,SKU_139,12.9503914,77.698676
185,185,"88, KBR Complex, More Mega Store, Marathahalli, Bangalore, MTH",MTH,73406214406,Jane Jones,SKU_148,12.9708994,77.6987493
186,186,"Panathur Main Road, Kadubeesanahalli, Marathahalli, Bangalore, MTH",MTH,47015403024,Anita Valdez,SKU_112,12.9371558,77.7023374
187,187,"127, Kadubisannhalli, Panathur Main Road, Marathahalli, Bangalore, MTH",MTH,45180804640,Carrie Lumpkin,SKU_77,12.939435,77.695516
188,188,"Ground Floor, Vims Hospital Buidling, Opposite to More, Marathahalli, Bangalore, MTH",MTH,31203804545,Katie Kochevar,SKU_61,12.9483018,77.6994652
189,189,"77 Town Center, Yemalur Road, Marathahalli Village, Marathahalli, Bangalore, MTH",MTH,66199582549,Rose Lau,SKU_79,12.9486582,77.6899712
190,190,"Near Madurai Idly, SGR Dental College Road, CKB Layout, Chandra Layout, Marathahalli, Bengalore, MTH",MTH,16213830807,Adam Shelquist,SKU_127,12.9532395,77.7015664
191,191,"Ground Floor, More Megastore, Service Road, Marathahalli, Bangalore, MTH",MTH,13002857017,Ivan Kinley,SKU_62,12.9482807,77.6983956
192,192,"88, Outer Ring Road, Next To More Mega Store, Marathahalli, Bangalore, MTH",MTH,15691083877,Kevin Schneider,SKU_97,12.956924,77.701127
193,193,"88, 1st Floor, VIMS Hospital Building, Outer Ring Road, Marathahalli, Bangalore, MTH",MTH,62758300340,Mary Duffy,SKU_90,12.9483018,77.6994652
194,194,"Ikon Building, Next to Sony Centre, Outer Ring Road, Marathahalli, MTH",MTH,54016008457,James Allen,SKU_102,12.9577656,77.7011709
195,195,"3, Srinivasa Nilayam, Vidya Vikas School Road, Panathur New Extension, Kaverappa Layout, Marathahalli, Bangalore, MTH",MTH,43727711975,Ricky Aschenbrenner,SKU_68,12.956924,77.701127
196,196,"First Floor, Raja Ikon, Opposite Hotel Radisson Blu, Near Marathahali Bridge, Marathahalli, Bangalore, MTH",MTH,24526739732,Marie Harris,SKU_129,12.9493355,77.6998041
197,197,"Shop 217, 2nd main road, Kadubeesanahalli Croma, Back Side road Near Kumbeshwara Temple Marathahalli, Bangalore, MTH",MTH,72580152196,Patrick Payne,SKU_90,12.956924,77.701127
198,198,"88, 3rd Floor, KBR Mall, Above More Mega Store, Outer Ring Road, Marathahalli, Bangalore, MTH",MTH,34889886477,Emma Saulsberry,SKU_113,12.9577656,77.7011709
199,199,"Near Madurai Idly, SGR Dental College Road, CKB Layout, Chandra Layout, Marathahalli, Bengalore, MTH",MTH,65188908427,Mary Paongo,SKU_48,12.9532395,77.7015664
200,200,"1st Floor, NTR Royal Plaza, Outer Ring Road, Marathahalli, Bangalore, MTH",MTH,18924249557,Charles Albrecht,SKU_10,12.949365,77.6990172
201,201,"20/5, Outer Ring Road, Kadubeesanahalli, Marathahalli, Bangalore, MTH",MTH,49862610786,Naomi Daniels,SKU_89,12.9387303,77.6951242
202,202,"Kadubeesanahalli, Marathahalli Outer Ring Road, Opposite JP Morgan, Varthur Hobli, Marathahalli, Bangalore, MTH",MTH,56516948976,Robert Clarke,SKU_63,12.9577656,77.7011709
203,203,"Yemalur, Marathahalli, Bangalore, MTH",MTH,12358732625,Annie Farrior,SKU_139,12.9446164,77.6836756
204,204,"20\5, Panathur Junction, Outer Ring Road, Kadubeessanahalli, Marathahalli, Bangalore, MTH",MTH,22660986194,Delores Dupont,SKU_149,12.9399931,77.6962218
205,205,"Outer Ring Road, Opposite to JP Morgan, Kodbisanhalli, Marathahalli, Bangalore, MTH",MTH,25907907008,Frank Lester,SKU_103,12.9435238,77.6975202
206,206,"Shop 7, 8 Opposite, Airtel Express, Panathur Main Road, Marathahalli, Bangalore, MTH",MTH,61450912280,Tommy Mason,SKU_129,12.9324386,77.7081077
207,207,"Srinivasa Nilayam, Site 3, Vidya Vikas School Road, Panathur New Extension, Kaverappa Layout, Marathahalli, Bangalore, MTH",MTH,60841023934,Bobbie Scarborough,SKU_3,12.956924,77.701127
208,208,"Salarpuria Sattva Aura, Kiosk 6, Foodworks Food Court, Block 11, Marathahalli - Sarjapur Outer Ring Road, Kaverappa Layout, Kadubeesanahalli, Marathahalli, Bangalore, MTH",MTH,35828962763,Jesse Vaness,SKU_25,12.9394137,77.6952031
209,209,"23/4, Kariyammana Agrahara Road Kadubisinahalli, Prestige Tech Park Back Gate, Marathahalli, Bangalore, MTH",MTH,87093968225,Russell Diamond,SKU_69,12.948889,77.686014
210,210,"Plot 302, Shop 1, 2nd Cross, Kadubesanahalli, Panathur Main Road, Marathahalli, Bangalore, MTH",MTH,71791751983,Dorothy Davis,SKU_44,12.9399329,77.6979661
211,211,"6,Opposite Prestige Tech Park, Kadubeesanhalli Bus Stop, Marathahalli, Bangalore, MTH",MTH,75026092650,Herman Boulds,SKU_100,12.9395573,77.6898247
212,212,"18, Prakruthi Enclave, Panathur Road, Kadubeesanahalli, Marathahalli, Bangalore, MTH",MTH,41891691354,Catherine Wilson,SKU_78,12.9394137,77.6952031
213,213,"Shop 217, 2nd Main Road Kadubeesanahalli Croma Back Side Road Near Kumbeshwara Temple Marathahalli, Bangalore, MTH",MTH,49695767650,Mary Compton,SKU_53,12.956924,77.701127
214,214,"77 Town, Building No 3, Divya Shree Building, Yamalur Post, Marathahalli, Bangalore, MTH",MTH,62165843566,Aaron Davis,SKU_5,12.9490141,77.6893306
215,215,"Near kaka singh dhaba, RMZ eco world backgate, MTH",MTH,70987447117,Holly Sallee,SKU_104,12.3696346,77.1111973
216,216,"41, Kadubeesanahalli, Marathahalli, Bangalore, MTH",MTH,17162566322,Tracy Vanhoy,SKU_87,12.9394137,77.6952031
217,217,"5, KBR Mall Complex, Ground Floor, More Mega Store, Varthur Hobli, Marathahalli, Bangalore, MTH",MTH,32184021928,Harry Heishman,SKU_138,12.956924,77.701127
